{
    "CCSDS_OMM_VERS": "3.0",
    "COMMENT": "GENERATED VIA SPACE-TRACK.ORG API",
    "CREATION_DATE": "2025-05-22T22:46:20",
    "ORIGINATOR": "18 SPCS",
    "OBJECT_NAME": "BEIDOU 3 G2",
    "OBJECT_ID": "2020-017A",
    "CENTER_NAME": "EARTH",
    "REF_FRAME": "TEME",
    "TIME_SYSTEM": "UTC",
    "MEAN_ELEMENT_THEORY": "SGP4",
    "EPOCH": "2025-05-22T21:43:28.771104",
    "MEAN_MOTION": "1.00270611",
    "ECCENTRICITY": "0.00022280",
    "INCLINATION": "2.8296",
    "RA_OF_ASC_NODE": "39.9161",
    "ARG_OF_PERICENTER": "5.9886",
    "MEAN_ANOMALY": "240.7763",
    "EPHEMERIS_TYPE": "0",
    "CLASSIFICATION_TYPE": "U",
    "NORAD_CAT_ID": "45344",
    "ELEMENT_SET_NO": "999",
    "REV_AT_EPOCH": "1935",
    "BSTAR": "0.00000000000000",
    "MEAN_MOTION_DOT": "-0.00000132",
    "MEAN_MOTION_DDOT": "0.0000000000000",
    "SEMIMAJOR_AXIS": "42165.061",
    "PERIOD": "1436.114",
    "APOAPSIS": "35796.320",
    "PERIAPSIS": "35777.532",
    "OBJECT_TYPE": "PAYLOAD",
    "RCS_SIZE": "LARGE",
    "COUNTRY_CODE": "PRC",
    "LAUNCH_DATE": "2020-03-09",
    "SITE": "XSC",
    "DECAY_DATE": null,
    "FILE": "4736427",
    "GP_ID": "288162859",
    "TLE_LINE0": "0 BEIDOU 3 G2",
    "TLE_LINE1": "1 45344U 20017A   25142.90519411 -.00000132  00000-0  00000+0 0  9990",
    "TLE_LINE2": "2 45344   2.8296  39.9161 0002228   5.9886 240.7763  1.00270611 19353"
}